[
  {
    "COMMENT": "GENERATED VIA SPACETRACK.ORG API",
    "ORIGINATOR": "18 SPCS",
    "NORAD_CAT_ID": "46469",
    "OBJECT_NAME": "HAIYANG 2C",
    "OBJECT_TYPE": "PAYLOAD",
    "CLASSIFICATION_TYPE": "U",
    "INTLDES": "20066A",
    "EPOCH": "2023-06-02 12:01:48",
    "EPOCH_MICROSECONDS": "790560",
    "MEAN_MOTION": "13.83374967",
    "ECCENTRICITY": "0.0009139",
    "INCLINATION": "65.996",
    "RA_OF_ASC_NODE": "100.6464",
    "ARG_OF_PERICENTER": "301.5047",
    "MEAN_ANOMALY": "58.5127",
    "EPHEMERIS_TYPE": "0",
    "ELEMENT_SET_NO": "999",
    "REV_AT_EPOCH": "13615",
    "BSTAR": "0.000055179",
    "MEAN_MOTION_DOT": "-0.0000002",
    "MEAN_MOTION_DDOT": "0",
    "FILE": "3923109",
    "TLE_LINE0": "0 HAIYANG 2C",
    "TLE_LINE1": "1 46469U 20066A   23153.50125915 -.00000020  00000-0  55179-4 0  9999",
    "TLE_LINE2": "2 46469  65.9960 100.6464 0009139 301.5047  58.5127 13.83374967136154",
    "OBJECT_ID": "2020-066A",
    "OBJECT_NUMBER": "46469",
    "SEMIMAJOR_AXIS": "7330.077",
    "PERIOD": "104.093",
    "APOGEE": "958.641",
    "PERIGEE": "945.244",
    "DECAYED": "0"
  },
  {
    "COMMENT": "GENERATED VIA SPACETRACK.ORG API",
    "ORIGINATOR": "18 SPCS",
    "NORAD_CAT_ID": "46469",
    "OBJECT_NAME": "HAIYANG 2C",
    "OBJECT_TYPE": "PAYLOAD",
    "CLASSIFICATION_TYPE": "U",
    "INTLDES": "20066A",
    "EPOCH": "2023-06-02 13:45:55",
    "EPOCH_MICROSECONDS": "52640",
    "MEAN_MOTION": "13.8337498",
    "ECCENTRICITY": "0.0009141",
    "INCLINATION": "65.996",
    "RA_OF_ASC_NODE": "100.4664",
    "ARG_OF_PERICENTER": "301.5029",
    "MEAN_ANOMALY": "58.5146",
    "EPHEMERIS_TYPE": "0",
    "ELEMENT_SET_NO": "999",
    "REV_AT_EPOCH": "13587",
    "BSTAR": "0.000056147",
    "MEAN_MOTION_DOT": "-0.00000019",
    "MEAN_MOTION_DDOT": "0",
    "FILE": "3923342",
    "TLE_LINE0": "0 HAIYANG 2C",
    "TLE_LINE1": "1 46469U 20066A   23153.57355385 -.00000019  00000-0  56147-4 0  9996",
    "TLE_LINE2": "2 46469  65.9960 100.4664 0009141 301.5029  58.5146 13.83374980135871",
    "OBJECT_ID": "2020-066A",
    "OBJECT_NUMBER": "46469",
    "SEMIMAJOR_AXIS": "7330.077",
    "PERIOD": "104.093",
    "APOGEE": "958.643",
    "PERIGEE": "945.242",
    "DECAYED": "0"
  },
  {
    "COMMENT": "GENERATED VIA SPACETRACK.ORG API",
    "ORIGINATOR": "18 SPCS",
    "NORAD_CAT_ID": "46469",
    "OBJECT_NAME": "HAIYANG 2C",
    "OBJECT_TYPE": "PAYLOAD",
    "CLASSIFICATION_TYPE": "U",
    "INTLDES": "20066A",
    "EPOCH": "2023-06-02 18:58:13",
    "EPOCH_MICROSECONDS": "839744",
    "MEAN_MOTION": "13.83375015",
    "ECCENTRICITY": "0.0009145",
    "INCLINATION": "65.996",
    "RA_OF_ASC_NODE": "99.9264",
    "ARG_OF_PERICENTER": "301.4681",
    "MEAN_ANOMALY": "58.5493",
    "EPHEMERIS_TYPE": "0",
    "ELEMENT_SET_NO": "999",
    "REV_AT_EPOCH": "13619",
    "BSTAR": "0.000055622",
    "MEAN_MOTION_DOT": "-0.0000002",
    "MEAN_MOTION_DDOT": "0",
    "FILE": "3923412",
    "TLE_LINE0": "0 HAIYANG 2C",
    "TLE_LINE1": "1 46469U 20066A   23153.79043796 -.00000020  00000-0  55622-4 0  9999",
    "TLE_LINE2": "2 46469  65.9960  99.9264 0009145 301.4681  58.5493 13.83375015136197",
    "OBJECT_ID": "2020-066A",
    "OBJECT_NUMBER": "46469",
    "SEMIMAJOR_AXIS": "7330.077",
    "PERIOD": "104.093",
    "APOGEE": "958.646",
    "PERIGEE": "945.239",
    "DECAYED": "0"
  },
  {
    "COMMENT": "GENERATED VIA SPACETRACK.ORG API",
    "ORIGINATOR": "18 SPCS",
    "NORAD_CAT_ID": "46469",
    "OBJECT_NAME": "HAIYANG 2C",
    "OBJECT_TYPE": "PAYLOAD",
    "CLASSIFICATION_TYPE": "U",
    "INTLDES": "20066A",
    "EPOCH": "2023-06-02 18:58:13",
    "EPOCH_MICROSECONDS": "839744",
    "MEAN_MOTION": "13.83375015",
    "ECCENTRICITY": "0.0009145",
    "INCLINATION": "65.996",
    "RA_OF_ASC_NODE": "99.9264",
    "ARG_OF_PERICENTER": "301.4681",
    "MEAN_ANOMALY": "58.5493",
    "EPHEMERIS_TYPE": "0",
    "ELEMENT_SET_NO": "999",
    "REV_AT_EPOCH": "13590",
    "BSTAR": "0.000055622",
    "MEAN_MOTION_DOT": "-0.0000002",
    "MEAN_MOTION_DDOT": "0",
    "FILE": "3923570",
    "TLE_LINE0": "0 HAIYANG 2C",
    "TLE_LINE1": "1 46469U 20066A   23153.79043796 -.00000020  00000-0  55622-4 0  9999",
    "TLE_LINE2": "2 46469  65.9960  99.9264 0009145 301.4681  58.5493 13.83375015135905",
    "OBJECT_ID": "2020-066A",
    "OBJECT_NUMBER": "46469",
    "SEMIMAJOR_AXIS": "7330.077",
    "PERIOD": "104.093",
    "APOGEE": "958.646",
    "PERIGEE": "945.239",
    "DECAYED": "0"
  },
  {
    "COMMENT": "GENERATED VIA SPACETRACK.ORG API",
    "ORIGINATOR": "18 SPCS",
    "NORAD_CAT_ID": "46469",
    "OBJECT_NAME": "HAIYANG 2C",
    "OBJECT_TYPE": "PAYLOAD",
    "CLASSIFICATION_TYPE": "U",
    "INTLDES": "20066A",
    "EPOCH": "2023-06-03 03:38:45",
    "EPOCH_MICROSECONDS": "148416",
    "MEAN_MOTION": "13.83375074",
    "ECCENTRICITY": "0.000916",
    "INCLINATION": "65.9961",
    "RA_OF_ASC_NODE": "99.0264",
    "ARG_OF_PERICENTER": "301.4338",
    "MEAN_ANOMALY": "58.5834",
    "EPHEMERIS_TYPE": "0",
    "ELEMENT_SET_NO": "999",
    "REV_AT_EPOCH": "13624",
    "BSTAR": "0.000060468",
    "MEAN_MOTION_DOT": "-0.00000015",
    "MEAN_MOTION_DDOT": "0",
    "FILE": "3923643",
    "TLE_LINE0": "0 HAIYANG 2C",
    "TLE_LINE1": "1 46469U 20066A   23154.15191144 -.00000015  00000-0  60468-4 0  9999",
    "TLE_LINE2": "2 46469  65.9961  99.0264 0009160 301.4338  58.5834 13.83375074136245",
    "OBJECT_ID": "2020-066A",
    "OBJECT_NUMBER": "46469",
    "SEMIMAJOR_AXIS": "7330.077",
    "PERIOD": "104.093",
    "APOGEE": "958.656",
    "PERIGEE": "945.228",
    "DECAYED": "0"
  },
  {
    "COMMENT": "GENERATED VIA SPACETRACK.ORG API",
    "ORIGINATOR": "18 SPCS",
    "NORAD_CAT_ID": "46469",
    "OBJECT_NAME": "HAIYANG 2C",
    "OBJECT_TYPE": "PAYLOAD",
    "CLASSIFICATION_TYPE": "U",
    "INTLDES": "20066A",
    "EPOCH": "2023-06-03 10:35:10",
    "EPOCH_MICROSECONDS": "196736",
    "MEAN_MOTION": "13.83375111",
    "ECCENTRICITY": "0.0009175",
    "INCLINATION": "65.9961",
    "RA_OF_ASC_NODE": "98.3064",
    "ARG_OF_PERICENTER": "301.4373",
    "MEAN_ANOMALY": "58.5798",
    "EPHEMERIS_TYPE": "0",
    "ELEMENT_SET_NO": "999",
    "REV_AT_EPOCH": "13628",
    "BSTAR": "0.000057801",
    "MEAN_MOTION_DOT": "-0.00000018",
    "MEAN_MOTION_DDOT": "0",
    "FILE": "3923867",
    "TLE_LINE0": "0 HAIYANG 2C",
    "TLE_LINE1": "1 46469U 20066A   23154.44109024 -.00000018  00000-0  57801-4 0  9997",
    "TLE_LINE2": "2 46469  65.9961  98.3064 0009175 301.4373  58.5798 13.83375111136285",
    "OBJECT_ID": "2020-066A",
    "OBJECT_NUMBER": "46469",
    "SEMIMAJOR_AXIS": "7330.077",
    "PERIOD": "104.093",
    "APOGEE": "958.667",
    "PERIGEE": "945.217",
    "DECAYED": "0"
  },
  {
    "COMMENT": "GENERATED VIA SPACETRACK.ORG API",
    "ORIGINATOR": "18 SPCS",
    "NORAD_CAT_ID": "46469",
    "OBJECT_NAME": "HAIYANG 2C",
    "OBJECT_TYPE": "PAYLOAD",
    "CLASSIFICATION_TYPE": "U",
    "INTLDES": "20066A",
    "EPOCH": "2023-06-03 14:03:22",
    "EPOCH_MICROSECONDS": "721760",
    "MEAN_MOTION": "13.83375104",
    "ECCENTRICITY": "0.0009182",
    "INCLINATION": "65.9961",
    "RA_OF_ASC_NODE": "97.9464",
    "ARG_OF_PERICENTER": "301.4308",
    "MEAN_ANOMALY": "58.5862",
    "EPHEMERIS_TYPE": "0",
    "ELEMENT_SET_NO": "999",
    "REV_AT_EPOCH": "13601",
    "BSTAR": "0.000052699",
    "MEAN_MOTION_DOT": "-0.00000023",
    "MEAN_MOTION_DDOT": "0",
    "FILE": "3924076",
    "TLE_LINE0": "0 HAIYANG 2C",
    "TLE_LINE1": "1 46469U 20066A   23154.58567965 -.00000023  00000-0  52699-4 0  9990",
    "TLE_LINE2": "2 46469  65.9961  97.9464 0009182 301.4308  58.5862 13.83375104136015",
    "OBJECT_ID": "2020-066A",
    "OBJECT_NUMBER": "46469",
    "SEMIMAJOR_AXIS": "7330.077",
    "PERIOD": "104.093",
    "APOGEE": "958.672",
    "PERIGEE": "945.212",
    "DECAYED": "0"
  },
  {
    "COMMENT": "GENERATED VIA SPACETRACK.ORG API",
    "ORIGINATOR": "18 SPCS",
    "NORAD_CAT_ID": "46469",
    "OBJECT_NAME": "HAIYANG 2C",
    "OBJECT_TYPE": "PAYLOAD",
    "CLASSIFICATION_TYPE": "U",
    "INTLDES": "20066A",
    "EPOCH": "2023-06-03 19:15:41",
    "EPOCH_MICROSECONDS": "508000",
    "MEAN_MOTION": "13.83375129",
    "ECCENTRICITY": "0.0009189",
    "INCLINATION": "65.9961",
    "RA_OF_ASC_NODE": "97.4064",
    "ARG_OF_PERICENTER": "301.4203",
    "MEAN_ANOMALY": "58.5966",
    "EPHEMERIS_TYPE": "0",
    "ELEMENT_SET_NO": "999",
    "REV_AT_EPOCH": "13633",
    "BSTAR": "0.000049314",
    "MEAN_MOTION_DOT": "-0.00000027",
    "MEAN_MOTION_DDOT": "0",
    "FILE": "3924202",
    "TLE_LINE0": "0 HAIYANG 2C",
    "TLE_LINE1": "1 46469U 20066A   23154.80256375 -.00000027  00000-0  49314-4 0  9999",
    "TLE_LINE2": "2 46469  65.9961  97.4064 0009189 301.4203  58.5966 13.83375129136334",
    "OBJECT_ID": "2020-066A",
    "OBJECT_NUMBER": "46469",
    "SEMIMAJOR_AXIS": "7330.077",
    "PERIOD": "104.093",
    "APOGEE": "958.678",
    "PERIGEE": "945.206",
    "DECAYED": "0"
  }
]